ONEWEB-0144             
1 47290U 20100AJ  25324.24820448  .00000237  00000+0  62462-3 0  9997
2 47290  87.8966  32.1423 0001863  89.1766 270.9576 13.12443565237167
ONEWEB-0145             
1 47291U 20100AK  25324.44770749 -.00000321  00000+0 -92765-3 0  9993
2 47291  87.8969  32.1395 0001779  98.0587 262.0743 13.12442092237381
ONEWEB-0146             
1 47292U 20100AL  25324.21575263 -.00000286  00000+0 -82933-3 0  9999
2 47292  87.8966  32.1724 0001915 110.9344 249.1990 13.12441690237262
ONEWEB-0147             
1 47293U 20100AM  25324.48664385  .00000493  00000+0  13342-2 0  9998
2 47293  87.8970  32.0965 0002022  96.2220 263.9139 13.12442833237194
ONEWEB-0115             
1 48042U 21025A   25324.52528583 -.00000261  00000+0 -74903-3 0  9998
2 48042  87.9008   1.6891 0001818  97.3615 262.7721 13.13469783226200
ONEWEB-0152             
1 48043U 21025B   25324.38646865  .00000022  00000+0  24304-4 0  9991
2 48043  87.8996   1.7257 0001870  99.2257 260.9084 13.13469811226141
ONEWEB-0153             
1 48044U 21025C   25324.51681630 -.00000232  00000+0 -66979-3 0  9994
2 48044  87.9005   1.7039 0001774  95.0253 265.1079 13.13469528226152
ONEWEB-0154             
1 48045U 21025D   25324.36108076 -.00000187  00000+0 -54782-3 0  9994
2 48045  87.9004   1.7311 0001904  95.9953 264.1393 13.13469560226093
